[{"OBJECT_NAME":"ICEYE-X31","OBJECT_ID":"2023-174AJ","EPOCH":"2026-03-09T23:06:20.433600","MEAN_MOTION":15.30950809,"ECCENTRICITY":0.00015021,"INCLINATION":97.3851,"RA_OF_ASC_NODE":144.9524,"ARG_OF_PERICENTER":332.6589,"MEAN_ANOMALY":27.4572,"EPHEMERIS_TYPE":0,"CLASSIFICATION_TYPE":"U","NORAD_CAT_ID":58288,"ELEMENT_SET_NO":999,"REV_AT_EPOCH":12955,"BSTAR":0.00066288467,"MEAN_MOTION_DOT":0.00019777,"MEAN_MOTION_DDOT":0},{"OBJECT_NAME":"STARLINK-31120","OBJECT_ID":"2024-011P","EPOCH":"2026-03-09T05:19:27.537600","MEAN_MOTION":15.30163282,"ECCENTRICITY":8.97e-5,"INCLINATION":53.162,"RA_OF_ASC_NODE":16.1945,"ARG_OF_PERICENTER":88.4258,"MEAN_ANOMALY":271.6845,"EPHEMERIS_TYPE":0,"CLASSIFICATION_TYPE":"U","NORAD_CAT_ID":58778,"ELEMENT_SET_NO":999,"REV_AT_EPOCH":12019,"BSTAR":-0.00011781765,"MEAN_MOTION_DOT":-3.842e-5,"MEAN_MOTION_DDOT":0}]
